{
  "norad_id": 65177,
  "name": "STARLINK-34967",
  "history": [
    {
      "epoch": "2026-03-28T14:37:39.531648Z",
      "apogee_km": 550.9103457408892,
      "perigee_km": 548.0977234808379,
      "latitude_deg": -6.8073787472316e-05,
      "longitude_deg": -84.19517812000326,
      "height_km": 552.3202757932258,
      "semi_major_axis_km": 6927.641034610863,
      "eccentricity": 0.000203,
      "inclination_deg": 97.6031,
      "raan_deg": 321.247,
      "arg_perigee_deg": 79.941,
      "mean_anomaly_deg": 280.2045,
      "mean_motion_rev_day": 15.05652321
    },
    {
      "epoch": "2026-03-29T03:23:15.598464Z",
      "apogee_km": 550.9166499118746,
      "perigee_km": 548.1026398447248,
      "latitude_deg": 5.477225039702784e-06,
      "longitude_deg": 84.404798293958,
      "height_km": 552.2698786975824,
      "semi_major_axis_km": 6927.646644878299,
      "eccentricity": 0.0002031,
      "inclination_deg": 97.6031,
      "raan_deg": 321.7713,
      "arg_perigee_deg": 77.6207,
      "mean_anomaly_deg": 282.5247,
      "mean_motion_rev_day": 15.05650492
    },
    {
      "epoch": "2026-03-30T01:43:03.502848Z",
      "apogee_km": 550.7995156939323,
      "perigee_km": 548.1656347314365,
      "latitude_deg": 3.79504785770329e-05,
      "longitude_deg": 109.45463347946061,
      "height_km": 552.2682557026322,
      "semi_major_axis_km": 6927.619575212684,
      "eccentricity": 0.0001901,
      "inclination_deg": 97.6028,
      "raan_deg": 322.6878,
      "arg_perigee_deg": 77.8833,
      "mean_anomaly_deg": 282.2607,
      "mean_motion_rev_day": 15.05659317
    },
    {
      "epoch": "2026-03-30T04:54:27.634464Z",
      "apogee_km": 550.8929481258856,
      "perigee_km": 548.0995878395697,
      "latitude_deg": -4.1956483740431636e-06,
      "longitude_deg": 61.60518068157227,
      "height_km": 552.2266871132882,
      "semi_major_axis_km": 6927.633267982727,
      "eccentricity": 0.00020161,
      "inclination_deg": 97.6026,
      "raan_deg": 322.8199,
      "arg_perigee_deg": 76.2694,
      "mean_anomaly_deg": 283.8757,
      "mean_motion_rev_day": 15.05654853
    },
    {
      "epoch": "2026-03-30T12:52:57.618336Z",
      "apogee_km": 550.9442985500891,
      "perigee_km": 548.0345568979164,
      "latitude_deg": 5.110473881787249e-05,
      "longitude_deg": -58.019780503482465,
      "height_km": 552.2340697297731,
      "semi_major_axis_km": 6927.6264277240025,
      "eccentricity": 0.00021001,
      "inclination_deg": 97.6029,
      "raan_deg": 323.1474,
      "arg_perigee_deg": 77.4102,
      "mean_anomaly_deg": 282.736,
      "mean_motion_rev_day": 15.05657083
    },
    {
      "epoch": "2026-03-31T09:37:03.605088Z",
      "apogee_km": 550.8363344462359,
      "perigee_km": 548.1387174558313,
      "latitude_deg": 5.970300171948514e-05,
      "longitude_deg": -9.044981386982004,
      "height_km": 552.2305703651062,
      "semi_major_axis_km": 6927.624525951033,
      "eccentricity": 0.0001947,
      "inclination_deg": 97.6028,
      "raan_deg": 323.9987,
      "arg_perigee_deg": 76.3199,
      "mean_anomaly_deg": 283.8245,
      "mean_motion_rev_day": 15.05657703
    },
    {
      "epoch": "2026-04-01T04:45:28.101888Z",
      "apogee_km": 551.3767773373411,
      "perigee_km": 547.6552421405086,
      "latitude_deg": -1.7360126188442745e-05,
      "longitude_deg": 63.85240239234516,
      "height_km": 552.1763491186964,
      "semi_major_axis_km": 6927.653009738924,
      "eccentricity": 0.0002686,
      "inclination_deg": 97.6028,
      "raan_deg": 324.7842,
      "arg_perigee_deg": 77.5749,
      "mean_anomaly_deg": 282.5778,
      "mean_motion_rev_day": 15.05648417
    },
    {
      "epoch": "2026-04-02T09:28:04.315296Z",
      "apogee_km": 551.0836379327875,
      "perigee_km": 547.8985916307347,
      "latitude_deg": 1.11944893856217e-05,
      "longitude_deg": -6.797369571976972,
      "height_km": 552.136973764755,
      "semi_major_axis_km": 6927.628114781761,
      "eccentricity": 0.00022988,
      "inclination_deg": 97.6026,
      "raan_deg": 325.9644,
      "arg_perigee_deg": 74.8727,
      "mean_anomaly_deg": 285.2754,
      "mean_motion_rev_day": 15.05656533
    },
    {
      "epoch": "2026-04-02T22:13:39.953568Z",
      "apogee_km": 551.0687357466577,
      "perigee_km": 547.8414476948092,
      "latitude_deg": -6.292689753683346e-05,
      "longitude_deg": 161.80301738648606,
      "height_km": 552.2082367762672,
      "semi_major_axis_km": 6927.592091720733,
      "eccentricity": 0.00023293,
      "inclination_deg": 97.6033,
      "raan_deg": 326.4873,
      "arg_perigee_deg": 78.9885,
      "mean_anomaly_deg": 281.1603,
      "mean_motion_rev_day": 15.05668277
    },
    {
      "epoch": "2026-04-03T17:22:03.374688Z",
      "apogee_km": 550.9362520392951,
      "perigee_km": 547.9698579777414,
      "latitude_deg": 1.7988547811991022e-05,
      "longitude_deg": -125.29462662333133,
      "height_km": 552.2427814149975,
      "semi_major_axis_km": 6927.590055008518,
      "eccentricity": 0.0002141,
      "inclination_deg": 97.6031,
      "raan_deg": 327.2733,
      "arg_perigee_deg": 79.4344,
      "mean_anomaly_deg": 280.7124,
      "mean_motion_rev_day": 15.05668941
    }
  ]
}